ONEWEB-0656             
1 55817U 23029X   24324.43732102  .00000096  00000+0  20373-3 0  9991
2 55817  87.9287  28.7561 0001862 120.6296 239.5021 13.20773523 85289
ONEWEB-0657             
1 55818U 23029Y   24324.53332170  .00000099  00000+0  21439-3 0  9991
2 55818  87.9191  59.2543 0001240 130.1000 230.0242 13.19723367 83796
ONEWEB-0658             
1 55819U 23029Z   24324.52857247 -.00000273  00000+0 -71324-3 0  9992
2 55819  87.9189  59.1896 0001581  82.8420 277.2892 13.19725740 83129
ONEWEB-0660             
1 55820U 23029AA  24324.51350788  .00000255  00000+0  65257-3 0  9997
2 55820  87.9030  43.9558 0002054  91.3914 268.7451 13.14502036 83909
ONEWEB-0661             
1 55821U 23029AB  24324.47227299  .00000012  00000+0 -22930-5 0  9998
2 55821  87.9034  44.0323 0002140  93.7287 266.4088 13.14500583 83884
ONEWEB-0662             
1 55822U 23029AC  24324.50714775 -.00002124  00000+0 -57650-2 0  9994
2 55822  87.9035  44.0328 0002240  87.1372 273.0014 13.14511830 84649
ONEWEB-0663             
1 55823U 23029AD  24324.42714523  .00000112  00000+0  24450-3 0  9993
2 55823  87.9287  28.8174 0002035  87.6992 272.4374 13.20813647 85273
ONEWEB-0664             
1 55824U 23029AE  24324.57620979  .00000066  00000+0  13146-3 0  9999
2 55824  87.9289  28.8038 0002274 102.0009 258.1379 13.20770354 85296
